{"type": "Feature", "properties": {"name": "Hawkesbury Upton and Kilcott", "source": "Cotswolds National Landscape (official GPX)", "sourceUrl": "https://www.cotswolds-nl.org.uk/exploring/self-guided-route/circular-via-kilcott-cotswold-gateway-hawkesbury-upton-walk-1/"}, "geometry": {"type": "LineString", "coordinates": [[-2.319662, 51.581282], [-2.319887, 51.581029], [-2.319254, 51.580909], [-2.318127, 51.581036], [-2.31795, 51.582296], [-2.317457, 51.582756], [-2.315998, 51.582969], [-2.315794, 51.583469], [-2.315322, 51.583629], [-2.315391, 51.584295], [-2.312554, 51.585348], [-2.308949, 51.586582], [-2.308552, 51.586982], [-2.306728, 51.587449], [-2.306503, 51.587715], [-2.307243, 51.588635], [-2.307639, 51.589542], [-2.307543, 51.590368], [-2.306943, 51.590655], [-2.306235, 51.590955], [-2.305752, 51.591935], [-2.303896, 51.594534], [-2.302844, 51.595041], [-2.302887, 51.596274], [-2.303981, 51.598186], [-2.306621, 51.598773], [-2.308091, 51.599613], [-2.308724, 51.599233], [-2.311008, 51.598682], [-2.313573, 51.5963], [-2.315547, 51.594941], [-2.316932, 51.594434], [-2.318251, 51.593994], [-2.320043, 51.593881], [-2.319431, 51.592761], [-2.323014, 51.591641], [-2.324903, 51.590748], [-2.329452, 51.587202], [-2.329355, 51.587169], [-2.329619, 51.586931], [-2.328652, 51.586612], [-2.327006, 51.585672], [-2.327065, 51.585579], [-2.326367, 51.584996], [-2.324274, 51.582333], [-2.323696, 51.581999], [-2.32266, 51.581639], [-2.321287, 51.581226], [-2.32, 51.581019]]}}