{"type": "Feature", "properties": {"name": "Winchcombe to the source of the River Isbourne", "source": "Cotswolds National Landscape (official GPX)", "sourceUrl": "https://www.cotswolds-nl.org.uk/exploring/self-guided-route/winchcombe-to-the-source-of-the-river-isbourne-cotswold-gateway-winchcombe-walk-4-circular-walk/"}, "geometry": {"type": "LineString", "coordinates": [[-1.967103, 51.954281, 94.7], [-1.967821, 51.954796, 95.5], [-1.970673, 51.953326, 101.6], [-1.972523, 51.952197, 104.7], [-1.976125, 51.951658, 112.4], [-1.977799, 51.951576, 115.0], [-1.980599, 51.952153, 125.4], [-1.982777, 51.951986, 134.3], [-1.984146, 51.951637, 141.0], [-1.988256, 51.951637, 151.4], [-1.991403, 51.950873, 155.1], [-1.992787, 51.950941, 155.2], [-1.993646, 51.951299, 160.0], [-1.996703, 51.951259, 172.0], [-2.001574, 51.951675, 169.4], [-2.004229, 51.950201, 165.8], [-2.005694, 51.948868, 183.6], [-2.00453, 51.948726, 183.8], [-2.004369, 51.948448, 185.7], [-2.003843, 51.948237, 185.9], [-2.003403, 51.947443, 192.9], [-2.003489, 51.947139, 195.8], [-2.005007, 51.945737, 212.7], [-2.005752, 51.943883, 228.6], [-2.003206, 51.943119, 214.7], [-2.004696, 51.938947, 180.3], [-2.008355, 51.937776, 208.0], [-2.00715, 51.937063, 201.7], [-2.006477, 51.935983, 205.4], [-2.006145, 51.935851, 210.1], [-2.006392, 51.933774, 243.1], [-2.007143, 51.933417, 244.4], [-2.006874, 51.933159, 251.3], [-2.007058, 51.933444, 244.6], [-2.006285, 51.933735, 245.4], [-2.006028, 51.935838, 211.8], [-2.006403, 51.936017, 205.5], [-2.007068, 51.937141, 199.8], [-2.008216, 51.93775, 207.1], [-2.004702, 51.938922, 180.2], [-2.003339, 51.938717, 179.5], [-2.001155, 51.939915, 166.0], [-1.999606, 51.940512, 159.7], [-1.991516, 51.942867, 131.4], [-1.990405, 51.942658, 128.2], [-1.989809, 51.943149, 127.4], [-1.989277, 51.943265, 129.3], [-1.988189, 51.942746, 125.6], [-1.984015, 51.943493, 126.1], [-1.983189, 51.943209, 121.6], [-1.981236, 51.943685, 120.6], [-1.980325, 51.944026, 119.3], [-1.976527, 51.946361, 102.3], [-1.97539, 51.947835, 100.7], [-1.975089, 51.94853, 99.0], [-1.974145, 51.94968, 99.4], [-1.973489, 51.949398, 96.4], [-1.972808, 51.949556, 96.1], [-1.972207, 51.950238, 97.0], [-1.96945, 51.951229, 93.7], [-1.969439, 51.951375, 94.8], [-1.96871, 51.951633, 94.1], [-1.968795, 51.95178, 95.3], [-1.967583, 51.952201, 96.2], [-1.967476, 51.952354, 97.2], [-1.966156, 51.952658, 96.0], [-1.965102, 51.95306, 95.1], [-1.965362, 51.953623, 95.7], [-1.966101, 51.954342, 93.5], [-1.967029, 51.9546, 94.0]]}}