{"type": "Feature", "properties": {"name": "Marshfield, Cold Ashton, Doynton, Dyrham and West Littleton", "source": "Cotswolds National Landscape (official GPX)", "sourceUrl": "https://www.cotswolds-nl.org.uk/exploring/self-guided-route/cold-ashton-doynton-dyrham-west-littleton-cotswold-gateway-marshfield-walk-4/"}, "geometry": {"type": "LineString", "coordinates": [[-2.316751, 51.46222, 187.3], [-2.316831, 51.462008, 187.3], [-2.32204, 51.462258, 191.0], [-2.324234, 51.462161, 192.3], [-2.32425, 51.46153, 189.0], [-2.323478, 51.460835, 183.0], [-2.324733, 51.459244, 173.9], [-2.325001, 51.459244, 172.8], [-2.327126, 51.458094, 166.9], [-2.328284, 51.457312, 163.8], [-2.329422, 51.457178, 163.0], [-2.330645, 51.456777, 160.3], [-2.333348, 51.456456, 153.4], [-2.335795, 51.456376, 149.1], [-2.337125, 51.456035, 140.7], [-2.33837, 51.455467, 134.3], [-2.339432, 51.454604, 139.0], [-2.346314, 51.452054, 132.8], [-2.347974, 51.452656, 161.1], [-2.352908, 51.453338, 207.4], [-2.353947, 51.452728, 206.8], [-2.357256, 51.45256, 205.3], [-2.359448, 51.452284, 207.5], [-2.362722, 51.451518, 211.4], [-2.3597, 51.452283, 208.5], [-2.361086, 51.455239, 204.0], [-2.362612, 51.454934, 204.1], [-2.366499, 51.455124, 203.1], [-2.369651, 51.457744, 191.8], [-2.370267, 51.458372, 195.4], [-2.374192, 51.457789, 203.0], [-2.377547, 51.459489, 203.1], [-2.383506, 51.461446, 164.7], [-2.387796, 51.462376, 118.6], [-2.392548, 51.46263, 97.7], [-2.394811, 51.462172, 98.8], [-2.397008, 51.4623, 95.5], [-2.399065, 51.463035, 89.0], [-2.401395, 51.462708, 86.3], [-2.402332, 51.462147, 86.9], [-2.405411, 51.46382, 83.8], [-2.403926, 51.464721, 82.9], [-2.401602, 51.46646, 79.1], [-2.399046, 51.466424, 83.0], [-2.394454, 51.468148, 86.8], [-2.393967, 51.470037, 86.4], [-2.39182, 51.471483, 86.1], [-2.386789, 51.472534, 94.7], [-2.386943, 51.473702, 94.3], [-2.385358, 51.47355, 98.3], [-2.382206, 51.475336, 105.4], [-2.378529, 51.474764, 116.2], [-2.375569, 51.478055, 133.3], [-2.374703, 51.477811, 143.4], [-2.371124, 51.476001, 182.4], [-2.370552, 51.476498, 182.2], [-2.362026, 51.477131, 194.2], [-2.358787, 51.477209, 187.0], [-2.35066, 51.47838, 171.6], [-2.347054, 51.477491, 187.0], [-2.34631, 51.478053, 185.2], [-2.34512, 51.477787, 185.2], [-2.34439, 51.476395, 190.6], [-2.344998, 51.475854, 193.0], [-2.342107, 51.474334, 188.4], [-2.341596, 51.473459, 184.8], [-2.341909, 51.471907, 170.3], [-2.34027, 51.469327, 171.8], [-2.337252, 51.470077, 160.0], [-2.334948, 51.469994, 155.0], [-2.330474, 51.468455, 175.2], [-2.328668, 51.467629, 182.3], [-2.326552, 51.463544, 192.9], [-2.326399, 51.46233, 191.4], [-2.324393, 51.462213, 192.5], [-2.32204, 51.462294, 191.1], [-2.316917, 51.462023, 187.3], [-2.316756, 51.462177, 187.4]]}}