{"type": "Feature", "properties": {"name": "Wotton-under-Edge: Brackenbury Ditches, Tyndale Monument and Westridge Woods", "source": "Cotswolds National Landscape (official GPX)", "sourceUrl": "https://www.cotswolds-nl.org.uk/exploring/self-guided-route/brackenbury-ditches-tyndale-monument-cotswold-gateway-wotton-under-edge-walk-2/"}, "geometry": {"type": "LineString", "coordinates": [[-2.354007, 51.636679], [-2.35393, 51.638019], [-2.356132, 51.638732], [-2.358752, 51.639326], [-2.359277, 51.639837], [-2.360383, 51.640207], [-2.360501, 51.640414], [-2.358891, 51.640753], [-2.358698, 51.641839], [-2.359299, 51.642331], [-2.357181, 51.645499], [-2.357854, 51.648397], [-2.359211, 51.650888], [-2.360593, 51.65194], [-2.361976, 51.652372], [-2.364573, 51.652227], [-2.366944, 51.653093], [-2.366708, 51.655416], [-2.366466, 51.655824], [-2.366735, 51.65613], [-2.367807, 51.657022], [-2.369299, 51.658037], [-2.372467, 51.658984], [-2.370746, 51.660384], [-2.369444, 51.660298], [-2.367689, 51.657002], [-2.36637, 51.655817], [-2.365865, 51.655704], [-2.364818, 51.655295], [-2.36283, 51.65371], [-2.361644, 51.652886], [-2.360445, 51.651966], [-2.359083, 51.650873], [-2.357978, 51.651299], [-2.352218, 51.647037], [-2.351853, 51.647063], [-2.350673, 51.646611], [-2.349246, 51.645852], [-2.348967, 51.645532], [-2.348882, 51.644906], [-2.349343, 51.644227], [-2.349761, 51.644067], [-2.349965, 51.644067], [-2.350266, 51.643608], [-2.352465, 51.643022], [-2.352374, 51.642177], [-2.352497, 51.641204], [-2.353543, 51.639776], [-2.353511, 51.639124], [-2.353742, 51.639124], [-2.354664, 51.638285], [-2.353854, 51.638035], [-2.353879, 51.636686]]}}