{"type": "Feature", "properties": {"name": "Holywell and Coombe (Wotton-under-Edge)", "source": "Cotswolds National Landscape (official GPX)", "sourceUrl": "https://www.cotswolds-nl.org.uk/exploring/self-guided-route/holywell-and-coombe-cotswold-gateway-wotton-under-edge-walk-4/"}, "geometry": {"type": "LineString", "coordinates": [[-2.354077, 51.636616, 97.7], [-2.353889, 51.637052, 96.3], [-2.35383, 51.637994, 94.9], [-2.352843, 51.637818, 91.7], [-2.350327, 51.637575, 81.9], [-2.350032, 51.638154, 81.1], [-2.349673, 51.638504, 80.1], [-2.348697, 51.638048, 73.5], [-2.347749, 51.638033, 71.7], [-2.347127, 51.637826, 71.7], [-2.346837, 51.638113, 71.2], [-2.345764, 51.639351, 73.6], [-2.345062, 51.640059, 70.9], [-2.345148, 51.640672, 72.3], [-2.344816, 51.640878, 73.0], [-2.344526, 51.640878, 73.0], [-2.342226, 51.641968, 76.7], [-2.341979, 51.641855, 76.4], [-2.341764, 51.641995, 76.3], [-2.341421, 51.642015, 76.5], [-2.340638, 51.642002, 77.4], [-2.339661, 51.642142, 77.9], [-2.337537, 51.642801, 81.2], [-2.337629, 51.643025, 81.4], [-2.336348, 51.643227, 83.6], [-2.334556, 51.643373, 84.6], [-2.334459, 51.64358, 86.0], [-2.333794, 51.64372, 87.1], [-2.33329, 51.644752, 93.6], [-2.333698, 51.645098, 96.9], [-2.335822, 51.645015, 105.2], [-2.336444, 51.64431, 95.0], [-2.336958, 51.644297, 94.4], [-2.338986, 51.644943, 106.8], [-2.339255, 51.645621, 119.4], [-2.339102, 51.645954, 125.0], [-2.338837, 51.646067, 125.8], [-2.338075, 51.645921, 123.5], [-2.337635, 51.646027, 130.8], [-2.338429, 51.647172, 150.9], [-2.339094, 51.647572, 163.6], [-2.339674, 51.647652, 165.7], [-2.340789, 51.647392, 169.8], [-2.341036, 51.64674, 162.2], [-2.342603, 51.645734, 157.0], [-2.342935, 51.645754, 158.8], [-2.343901, 51.646114, 168.2], [-2.344459, 51.646134, 167.8], [-2.34522, 51.646047, 166.6], [-2.34625, 51.645402, 164.7], [-2.347259, 51.644682, 163.9], [-2.347989, 51.644922, 172.5], [-2.348965, 51.645555, 172.4], [-2.348815, 51.644869, 164.5], [-2.349265, 51.644236, 146.0], [-2.349566, 51.644176, 139.1], [-2.34977, 51.64405, 133.7], [-2.349898, 51.644057, 131.4], [-2.350295, 51.643644, 122.3], [-2.352484, 51.643078, 105.6], [-2.352377, 51.642182, 96.6], [-2.352495, 51.641227, 90.8], [-2.35346, 51.639845, 100.7], [-2.353551, 51.639759, 100.8], [-2.353535, 51.639113, 96.5], [-2.353728, 51.639113, 97.2], [-2.354683, 51.638254, 97.9], [-2.353889, 51.638008, 95.1], [-2.353938, 51.637056, 96.5], [-2.354184, 51.636649, 98.1]]}}