{"type": "Feature", "properties": {"name": "Dursley Figure of Eight \u2014 Western Loop", "source": "Cotswolds National Landscape (official GPX)", "sourceUrl": "https://www.cotswolds-nl.org.uk/exploring/self-guided-route/figure-of-eight-western-loop-cotswold-gateway-dursley-walk-2/"}, "geometry": {"type": "LineString", "coordinates": [[-2.354095, 51.681335, 76.9], [-2.35286, 51.680709, 73.7], [-2.355708, 51.67865, 110.6], [-2.355714, 51.678001, 135.7], [-2.355403, 51.677908, 135.7], [-2.355333, 51.677732, 142.9], [-2.355071, 51.677363, 152.3], [-2.354888, 51.677286, 151.4], [-2.354444, 51.676659, 156.6], [-2.354663, 51.67528, 170.0], [-2.354935, 51.675563, 174.3], [-2.35627, 51.676525, 175.8], [-2.357864, 51.67707, 178.0], [-2.359451, 51.67663, 185.2], [-2.360668, 51.676489, 188.3], [-2.361806, 51.676602, 186.4], [-2.362007, 51.676785, 183.2], [-2.363485, 51.677222, 184.5], [-2.364679, 51.677704, 188.4], [-2.365637, 51.67835, 187.3], [-2.366248, 51.678204, 190.4], [-2.366683, 51.67841, 190.9], [-2.370894, 51.678693, 187.2], [-2.370725, 51.68096, 183.5], [-2.372412, 51.683921, 196.1], [-2.373527, 51.684071, 195.2], [-2.377552, 51.68279, 201.4], [-2.377635, 51.682286, 197.3], [-2.377241, 51.681919, 192.1], [-2.379469, 51.681966, 199.6], [-2.38084, 51.681539, 202.2], [-2.382128, 51.679997, 193.4], [-2.382619, 51.679887, 191.1], [-2.382003, 51.680519, 200.8], [-2.381752, 51.681725, 211.5], [-2.382136, 51.682631, 204.3], [-2.383201, 51.683698, 194.6], [-2.381902, 51.684062, 204.1], [-2.380048, 51.686785, 199.4], [-2.377902, 51.686306, 202.3], [-2.378513, 51.687013, 194.6], [-2.380927, 51.68848, 152.9], [-2.384196, 51.690132, 105.3], [-2.386648, 51.687553, 104.7], [-2.387536, 51.687191, 103.5], [-2.387805, 51.686798, 106.5], [-2.388318, 51.686621, 106.4], [-2.391471, 51.687773, 85.6], [-2.393195, 51.687723, 76.8], [-2.393152, 51.688083, 76.8], [-2.394163, 51.68849, 73.2], [-2.393106, 51.690049, 82.1], [-2.39229, 51.692677, 77.1], [-2.390485, 51.694733, 83.6], [-2.39114, 51.696844, 63.8], [-2.39123, 51.697302, 59.8], [-2.390248, 51.697431, 65.7], [-2.390337, 51.697701, 62.6], [-2.389817, 51.699465, 53.9], [-2.387852, 51.701575, 57.9], [-2.384627, 51.701685, 77.3], [-2.380271, 51.701545, 89.1], [-2.377309, 51.702239, 89.4], [-2.375185, 51.702551, 85.4], [-2.373589, 51.702116, 80.1], [-2.370208, 51.702675, 59.6], [-2.369861, 51.702748, 57.4], [-2.369462, 51.703106, 54.3], [-2.368775, 51.702662, 52.3], [-2.3684, 51.702773, 49.9], [-2.3678, 51.702521, 50.2], [-2.365793, 51.70322, 42.3], [-2.36545, 51.703154, 41.6], [-2.364805, 51.702087, 43.8], [-2.361304, 51.703871, 40.6], [-2.358574, 51.704988, 48.1], [-2.352712, 51.703898, 74.3], [-2.351465, 51.703447, 76.4], [-2.351573, 51.703054, 75.6], [-2.350983, 51.702715, 76.5], [-2.350581, 51.702106, 77.8], [-2.350447, 51.69967, 77.2], [-2.349625, 51.696256, 61.5], [-2.351281, 51.692079, 60.3], [-2.352017, 51.69253, 57.0], [-2.352854, 51.69247, 55.3], [-2.352822, 51.692271, 55.9], [-2.35243, 51.692195, 56.8], [-2.352369, 51.691578, 58.7], [-2.352178, 51.691058, 62.0], [-2.352751, 51.690353, 61.7], [-2.353492, 51.689703, 54.8], [-2.354389, 51.689816, 54.3], [-2.355605, 51.689769, 59.2], [-2.355862, 51.689575, 61.5], [-2.355361, 51.688758, 60.0], [-2.354985, 51.686588, 76.2], [-2.35678, 51.685751, 84.5], [-2.356902, 51.682711, 78.5], [-2.356344, 51.682425, 76.4], [-2.355773, 51.682253, 76.1], [-2.354066, 51.68156, 76.1]]}}