{"type": "Feature", "properties": {"name": "Wotton-under-Edge via Wortley, Tor Hill, Combe Hill and Wotton Hill", "source": "Cotswolds National Landscape (official GPX)", "sourceUrl": "https://www.cotswolds-nl.org.uk/exploring/self-guided-route/wortley-tor-hill-coombe-hill-cotswold-gateway-wotton-under-edge-walk-3/"}, "geometry": {"type": "LineString", "coordinates": [[-2.354337, 51.636313, 99.7], [-2.354466, 51.636173, 100.8], [-2.350797, 51.636017, 81.7], [-2.350781, 51.635124, 79.7], [-2.350512, 51.634321, 75.1], [-2.349697, 51.633389, 64.7], [-2.349485, 51.632683, 63.7], [-2.349494, 51.631725, 61.0], [-2.349753, 51.631291, 61.5], [-2.345717, 51.628216, 90.4], [-2.342422, 51.624692, 79.7], [-2.342403, 51.622749, 69.5], [-2.339808, 51.622901, 73.6], [-2.338315, 51.623218, 76.9], [-2.337516, 51.62259, 76.4], [-2.337596, 51.623647, 81.4], [-2.335648, 51.624034, 103.2], [-2.333932, 51.626287, 143.1], [-2.332134, 51.627461, 159.8], [-2.330944, 51.627712, 174.3], [-2.327726, 51.632194, 211.7], [-2.329229, 51.635247, 205.7], [-2.331545, 51.635825, 203.3], [-2.333276, 51.635415, 191.3], [-2.332526, 51.636609, 201.8], [-2.329248, 51.637877, 214.6], [-2.322501, 51.638929, 223.0], [-2.330706, 51.639626, 191.3], [-2.335215, 51.640467, 153.2], [-2.335682, 51.640797, 133.7], [-2.336351, 51.640869, 120.7], [-2.336884, 51.641599, 95.3], [-2.33713, 51.641712, 92.0], [-2.337136, 51.642182, 85.5], [-2.337696, 51.642932, 81.0], [-2.337145, 51.64353, 84.9], [-2.336939, 51.644229, 93.5], [-2.336501, 51.644302, 94.9], [-2.335911, 51.644948, 104.2], [-2.335558, 51.645024, 104.5], [-2.337424, 51.645847, 129.1], [-2.338319, 51.64703, 146.8], [-2.338907, 51.647489, 161.1], [-2.339604, 51.647642, 165.5], [-2.340763, 51.647362, 168.9], [-2.341153, 51.646602, 162.1], [-2.342688, 51.645708, 156.6], [-2.343793, 51.646061, 167.2], [-2.344523, 51.646168, 168.4], [-2.345273, 51.645989, 165.7], [-2.347204, 51.644684, 163.6], [-2.347967, 51.644923, 172.4], [-2.350667, 51.64658, 184.6], [-2.351877, 51.647065, 189.8], [-2.351427, 51.646499, 182.8], [-2.354209, 51.646216, 184.8], [-2.355339, 51.645828, 185.8], [-2.355893, 51.64521, 185.7], [-2.356226, 51.645177, 191.1], [-2.356226, 51.644891, 189.4], [-2.356977, 51.645403, 195.9], [-2.359208, 51.642601, 182.5], [-2.359309, 51.642321, 179.8], [-2.358804, 51.641974, 176.0], [-2.358672, 51.641801, 172.8], [-2.358804, 51.640862, 147.3], [-2.359212, 51.640643, 140.8], [-2.360553, 51.640423, 130.3], [-2.360323, 51.640243, 128.4], [-2.36029, 51.640183, 127.3], [-2.359126, 51.63984, 120.7], [-2.358681, 51.639274, 110.8], [-2.356138, 51.638752, 102.4], [-2.353853, 51.638019, 95.0], [-2.354097, 51.636752, 97.5]]}}