{"type": "Feature", "properties": {"name": "Circular walk up to Frith Wood (Painswick)", "source": "Cotswolds National Landscape (official GPX)", "sourceUrl": "https://www.cotswolds-nl.org.uk/exploring/self-guided-route/circular-walk-up-to-frith-wood-cotswold-gateway-painswick-walk-2/"}, "geometry": {"type": "LineString", "coordinates": [[-2.196416, 51.784524], [-2.195896, 51.78462], [-2.195719, 51.784948], [-2.194582, 51.785201], [-2.194206, 51.785061], [-2.19362, 51.784136], [-2.19419, 51.783385], [-2.194109, 51.782754], [-2.193406, 51.782168], [-2.193026, 51.781904], [-2.192484, 51.781361], [-2.192975, 51.780687], [-2.192964, 51.780628], [-2.193522, 51.780352], [-2.191736, 51.779287], [-2.190057, 51.778762], [-2.188635, 51.777939], [-2.186538, 51.777295], [-2.185283, 51.776539], [-2.183943, 51.774813], [-2.183831, 51.774321], [-2.18368, 51.774066], [-2.187934, 51.771871], [-2.189936, 51.770327], [-2.190655, 51.769723], [-2.192719, 51.767815], [-2.193391, 51.768149], [-2.193684, 51.768419], [-2.194195, 51.769278], [-2.194264, 51.769707], [-2.193906, 51.770971], [-2.194066, 51.771333], [-2.194657, 51.772153], [-2.195599, 51.772884], [-2.196405, 51.773102], [-2.196822, 51.773385], [-2.197171, 51.773226], [-2.19708, 51.772728], [-2.19824, 51.773348], [-2.200096, 51.773792], [-2.202832, 51.774563], [-2.204205, 51.774888], [-2.205513, 51.775426], [-2.20467, 51.776784], [-2.204422, 51.778492], [-2.204164, 51.778678], [-2.204386, 51.778951], [-2.203789, 51.77903], [-2.200248, 51.779435], [-2.198768, 51.779793], [-2.198357, 51.779811], [-2.198156, 51.780404], [-2.197234, 51.781406], [-2.19674, 51.781745], [-2.196715, 51.781975], [-2.196697, 51.782335], [-2.1963, 51.78272], [-2.196227, 51.783395], [-2.196874, 51.783938]]}}