{"type": "Feature", "properties": {"name": "Hawkesbury Upton via the Church of St Mary the Virgin", "source": "Cotswolds National Landscape (official GPX)", "sourceUrl": "https://www.cotswolds-nl.org.uk/exploring/self-guided-route/circular-via-hawkesbury-church-cotswold-gateway-hawkesbury-upton-walk-2/"}, "geometry": {"type": "LineString", "coordinates": [[-2.319684, 51.58127], [-2.319893, 51.58101], [-2.320912, 51.581176], [-2.321921, 51.581396], [-2.323106, 51.58177], [-2.324163, 51.582246], [-2.326325, 51.584993], [-2.327033, 51.585686], [-2.328374, 51.5865], [-2.329603, 51.586947], [-2.324507, 51.590962], [-2.319649, 51.592931], [-2.320054, 51.593986], [-2.322651, 51.593754], [-2.331612, 51.590335], [-2.334662, 51.592866], [-2.33535, 51.592503], [-2.337693, 51.592114], [-2.33884, 51.591077], [-2.340354, 51.59078], [-2.340157, 51.588668], [-2.339639, 51.586871], [-2.338602, 51.583255], [-2.336204, 51.581014], [-2.334401, 51.581199], [-2.332215, 51.5811], [-2.331743, 51.581553], [-2.328277, 51.581386], [-2.327837, 51.58151], [-2.324286, 51.582163], [-2.324206, 51.58222], [-2.323144, 51.581746], [-2.321443, 51.581253], [-2.320161, 51.58103]]}}