{"type": "Feature", "properties": {"name": "Circular walk to St Catherine's Valley (Marshfield)", "source": "Cotswolds National Landscape (official GPX)", "sourceUrl": "https://www.cotswolds-nl.org.uk/exploring/self-guided-route/circular-walk-to-st-catherines-valley-cotswold-gateway-marshfield-walk-3/"}, "geometry": {"type": "LineString", "coordinates": [[-2.316916, 51.462052, 187.3], [-2.32423, 51.462194, 192.4], [-2.326865, 51.462348, 191.8], [-2.329036, 51.461946, 193.9], [-2.328115, 51.460088, 188.7], [-2.327674, 51.459386, 182.1], [-2.327922, 51.458823, 174.8], [-2.327197, 51.458106, 166.7], [-2.328154, 51.457387, 163.7], [-2.333148, 51.456361, 154.8], [-2.336781, 51.456103, 142.0], [-2.33979, 51.454364, 133.1], [-2.346142, 51.45212, 132.9], [-2.346313, 51.45104, 128.2], [-2.349097, 51.448087, 118.7], [-2.346937, 51.44731, 103.5], [-2.348334, 51.446497, 121.6], [-2.347031, 51.445399, 116.2], [-2.347882, 51.443778, 123.9], [-2.346702, 51.43996, 117.5], [-2.346268, 51.439647, 109.0], [-2.34195, 51.439457, 84.5], [-2.338994, 51.438467, 82.9], [-2.336075, 51.437766, 80.6], [-2.330824, 51.437848, 71.8], [-2.32744, 51.437273, 68.1], [-2.327304, 51.437567, 68.8], [-2.325974, 51.43744, 68.4], [-2.325234, 51.437648, 71.8], [-2.324246, 51.437166, 71.8], [-2.324483, 51.436568, 71.3], [-2.32422, 51.436104, 73.7], [-2.323539, 51.435502, 72.9], [-2.32267, 51.434284, 74.1], [-2.321458, 51.432796, 63.1], [-2.317837, 51.431525, 70.6], [-2.315744, 51.430256, 60.4], [-2.313694, 51.430261, 68.4], [-2.313188, 51.429903, 64.9], [-2.311823, 51.429996, 65.0], [-2.308437, 51.434501, 93.5], [-2.307294, 51.435718, 102.4], [-2.307907, 51.435986, 104.0], [-2.306831, 51.438817, 160.3], [-2.308261, 51.440459, 169.4], [-2.309269, 51.440591, 169.8], [-2.309354, 51.442569, 171.4], [-2.310414, 51.444994, 163.7], [-2.312349, 51.449215, 160.6], [-2.310855, 51.451736, 172.5], [-2.3126, 51.454339, 160.5], [-2.310666, 51.455626, 153.7], [-2.31089, 51.456861, 142.4], [-2.310895, 51.457558, 144.4], [-2.313289, 51.460362, 168.6], [-2.314733, 51.461077, 179.4], [-2.315058, 51.461517, 185.6], [-2.315433, 51.461417, 183.8], [-2.316377, 51.461491, 184.3], [-2.31686, 51.461938, 187.2]]}}