{"type": "Feature", "properties": {"name": "Circular walk along the Painswick Stream", "source": "Cotswolds National Landscape (official GPX)", "sourceUrl": "https://www.cotswolds-nl.org.uk/exploring/self-guided-route/circular-walk-along-the-painswick-stream-cotswold-gateway-painswick-walk-1/"}, "geometry": {"type": "LineString", "coordinates": [[-2.195984, 51.784569], [-2.195732, 51.784914], [-2.194686, 51.785177], [-2.193977, 51.785442], [-2.193408, 51.785843], [-2.192695, 51.786135], [-2.192534, 51.785973], [-2.190479, 51.786274], [-2.188072, 51.786699], [-2.186389, 51.78627], [-2.185462, 51.786551], [-2.185184, 51.786503], [-2.184691, 51.786221], [-2.184571, 51.786144], [-2.187425, 51.784963], [-2.187951, 51.784452], [-2.18912, 51.783688], [-2.192371, 51.780854], [-2.193594, 51.780317], [-2.193712, 51.779686], [-2.196985, 51.779175], [-2.19809, 51.779686], [-2.198476, 51.779586], [-2.198401, 51.779779], [-2.198809, 51.779785], [-2.20428, 51.778989], [-2.204774, 51.779235], [-2.204559, 51.779487], [-2.203551, 51.779434], [-2.199045, 51.780655], [-2.198712, 51.781027], [-2.197478, 51.780887], [-2.195579, 51.781312], [-2.193734, 51.781823], [-2.19339, 51.782195], [-2.19412, 51.782733], [-2.194195, 51.783536], [-2.19368, 51.784087], [-2.194195, 51.785075], [-2.194528, 51.785182], [-2.195714, 51.784869], [-2.195864, 51.784653]]}}