{"type": "Feature", "properties": {"name": "Figure of Eight: Eastern Loop (Dursley)", "source": "Cotswolds National Landscape (official GPX)", "sourceUrl": "https://www.cotswolds-nl.org.uk/exploring/self-guided-route/figure-of-eight-eastern-loop-cotswold-gateway-dursley-walk-1/"}, "geometry": {"type": "LineString", "coordinates": [[-2.353878, 51.681345, 75.8], [-2.353472, 51.681274, 73.9], [-2.352733, 51.681069, 72.7], [-2.352457, 51.680944, 72.6], [-2.35201, 51.681107, 71.8], [-2.351807, 51.681009, 71.6], [-2.350989, 51.681794, 67.1], [-2.350368, 51.682011, 63.4], [-2.34983, 51.681644, 64.1], [-2.349669, 51.68133, 65.6], [-2.347612, 51.680986, 65.4], [-2.346469, 51.680845, 67.0], [-2.345886, 51.68037, 66.8], [-2.345667, 51.68002, 66.4], [-2.34393, 51.679882, 70.2], [-2.341905, 51.679798, 71.4], [-2.341714, 51.679483, 72.2], [-2.341251, 51.679431, 72.8], [-2.340756, 51.679046, 75.7], [-2.341058, 51.678802, 77.0], [-2.340852, 51.678335, 80.0], [-2.340617, 51.677769, 82.2], [-2.340746, 51.677697, 82.5], [-2.340196, 51.677636, 82.5], [-2.339916, 51.676899, 83.4], [-2.338554, 51.676552, 89.8], [-2.336383, 51.676388, 91.1], [-2.333859, 51.675325, 102.3], [-2.33136, 51.67571, 100.4], [-2.328086, 51.674928, 94.0], [-2.32656, 51.673817, 100.1], [-2.319473, 51.673765, 106.4], [-2.317242, 51.673204, 108.9], [-2.315429, 51.67445, 109.7], [-2.313814, 51.673106, 124.2], [-2.31025, 51.674212, 113.2], [-2.308353, 51.673857, 118.9], [-2.30646, 51.671974, 157.8], [-2.304091, 51.672277, 170.0], [-2.301543, 51.671879, 198.3], [-2.300761, 51.671656, 208.5], [-2.297182, 51.672744, 208.8], [-2.297478, 51.673778, 199.0], [-2.299471, 51.675607, 171.3], [-2.299416, 51.676029, 168.9], [-2.298798, 51.676561, 168.5], [-2.298047, 51.67677, 166.3], [-2.297932, 51.679162, 120.8], [-2.294846, 51.680492, 115.1], [-2.293151, 51.680091, 133.1], [-2.291738, 51.680796, 136.4], [-2.289988, 51.680729, 151.8], [-2.288109, 51.681012, 131.2], [-2.291365, 51.683485, 114.0], [-2.296425, 51.683131, 105.1], [-2.297964, 51.68399, 102.3], [-2.300884, 51.685862, 125.4], [-2.301548, 51.685725, 127.6], [-2.301883, 51.68603, 131.4], [-2.302109, 51.687396, 142.6], [-2.305025, 51.68649, 148.2], [-2.307067, 51.689002, 206.7], [-2.308372, 51.689358, 220.1], [-2.311561, 51.688271, 225.5], [-2.313697, 51.685388, 209.4], [-2.316888, 51.686656, 209.5], [-2.315798, 51.68808, 212.5], [-2.320043, 51.686899, 146.4], [-2.321852, 51.686993, 140.8], [-2.327658, 51.689702, 115.3], [-2.328839, 51.691002, 125.6], [-2.331146, 51.691913, 142.6], [-2.334964, 51.69136, 158.0], [-2.337271, 51.690682, 157.2], [-2.339932, 51.690115, 128.0], [-2.341071, 51.690158, 116.9], [-2.341796, 51.690354, 110.4], [-2.343247, 51.688956, 105.1], [-2.343902, 51.68765, 101.5], [-2.345786, 51.686206, 95.2], [-2.345566, 51.685757, 95.0], [-2.34713, 51.684134, 85.3], [-2.347832, 51.683206, 83.2], [-2.349158, 51.682635, 69.4], [-2.350547, 51.682631, 62.1], [-2.353662, 51.681489, 74.5]]}}