{"type": "Feature", "properties": {"name": "Wotton-under-Edge via Tyley Bottom, Ozleworth and Newark Park", "source": "Cotswolds National Landscape (official GPX)", "sourceUrl": "https://www.cotswolds-nl.org.uk/exploring/self-guided-route/tyley-bottom-ozleworth-and-newark-cotswold-gateway-wotton-under-edge-walk-1/"}, "geometry": {"type": "LineString", "coordinates": [[-2.34838, 51.639508], [-2.348101, 51.639695], [-2.347269, 51.639332], [-2.346872, 51.639488], [-2.346427, 51.639378], [-2.345949, 51.639179], [-2.345349, 51.639651], [-2.345032, 51.640021], [-2.345156, 51.640357], [-2.345027, 51.640633], [-2.345177, 51.6407], [-2.344903, 51.640833], [-2.344549, 51.64088], [-2.342248, 51.641965], [-2.342033, 51.641835], [-2.341776, 51.641965], [-2.340687, 51.642018], [-2.339732, 51.642135], [-2.337497, 51.642818], [-2.337625, 51.643004], [-2.336739, 51.643193], [-2.334568, 51.643357], [-2.334437, 51.643567], [-2.333837, 51.643706], [-2.333225, 51.644812], [-2.332753, 51.644412], [-2.332131, 51.644306], [-2.329513, 51.644858], [-2.326627, 51.64603], [-2.322271, 51.648214], [-2.319726, 51.649872], [-2.318531, 51.65081], [-2.317669, 51.651291], [-2.317133, 51.651737], [-2.315392, 51.652495], [-2.313182, 51.652888], [-2.312914, 51.652721], [-2.311819, 51.652974], [-2.309899, 51.65368], [-2.307335, 51.653307], [-2.306509, 51.653667], [-2.304535, 51.653247], [-2.302764, 51.653687], [-2.30137, 51.653281], [-2.301821, 51.652725], [-2.299396, 51.652169], [-2.298258, 51.649766], [-2.29769, 51.649433], [-2.298841, 51.647597], [-2.296984, 51.643856], [-2.296577, 51.643603], [-2.296888, 51.64281], [-2.297896, 51.642411], [-2.298626, 51.640873], [-2.298722, 51.640786], [-2.299034, 51.640839], [-2.300632, 51.640706], [-2.301562, 51.640835], [-2.303196, 51.642025], [-2.304194, 51.642397], [-2.304613, 51.642391], [-2.305685, 51.642078], [-2.307949, 51.640933], [-2.309862, 51.639696], [-2.311127, 51.639709], [-2.318335, 51.640348], [-2.320279, 51.639426], [-2.322736, 51.639], [-2.32265, 51.638827], [-2.326121, 51.63828], [-2.328588, 51.638074], [-2.329436, 51.63783], [-2.330898, 51.637177], [-2.331759, 51.636592], [-2.33215, 51.635903], [-2.333041, 51.635267], [-2.333529, 51.634424], [-2.336794, 51.633308], [-2.338296, 51.632902], [-2.340315, 51.631891], [-2.342832, 51.628201], [-2.343662, 51.627961], [-2.344312, 51.627916], [-2.345717, 51.628182], [-2.34752, 51.629874], [-2.349761, 51.631268], [-2.349503, 51.631914], [-2.349696, 51.633452], [-2.350479, 51.634291], [-2.35078, 51.635084], [-2.350823, 51.636009], [-2.350662, 51.637607], [-2.350318, 51.637581], [-2.349685, 51.638522], [-2.348816, 51.638266], [-2.347744, 51.638593]]}}