{"type": "Feature", "properties": {"name": "Leckhampton Hill & Charlton Kings Common \u2014 Miles without Stiles", "source": "Cotswolds National Landscape (official GPX)", "sourceUrl": "https://www.cotswolds-nl.org.uk/exploring/self-guided-route/leckhampton-hill-charlton-kings-common-miles-without-stiles/"}, "geometry": {"type": "LineString", "coordinates": [[-2.073957, 51.868352], [-2.073968, 51.868416], [-2.073969, 51.868425], [-2.07397, 51.868429], [-2.073983, 51.868427], [-2.074582, 51.868369], [-2.074554, 51.868339], [-2.074494, 51.868316], [-2.074464, 51.868317], [-2.074494, 51.868316], [-2.074554, 51.868339], [-2.074582, 51.868369], [-2.073983, 51.868427], [-2.07397, 51.868429], [-2.073905, 51.868435], [-2.073365, 51.868539], [-2.073176, 51.86856], [-2.072979, 51.868572], [-2.072644, 51.868577], [-2.07237, 51.868587], [-2.072245, 51.868599], [-2.072146, 51.868611], [-2.072007, 51.868631], [-2.071616, 51.868725], [-2.071295, 51.868797], [-2.070905, 51.868879], [-2.07057, 51.868946], [-2.070131, 51.868951], [-2.070033, 51.868952], [-2.069968, 51.868953], [-2.069766, 51.868947], [-2.069584, 51.868935], [-2.069507, 51.868927], [-2.069433, 51.86891], [-2.069381, 51.868892], [-2.069332, 51.868871], [-2.069292, 51.868848], [-2.069256, 51.868823], [-2.0691, 51.868559], [-2.069031, 51.868427], [-2.068915, 51.8683], [-2.068901, 51.868284], [-2.068782, 51.868152], [-2.068585, 51.867933], [-2.068387, 51.867713], [-2.068084, 51.86749], [-2.067897, 51.867302], [-2.067717, 51.867116], [-2.067269, 51.866865], [-2.06691, 51.866695], [-2.066604, 51.866524], [-2.066029, 51.866373], [-2.065454, 51.866222], [-2.065436, 51.866216], [-2.064918, 51.866065], [-2.064411, 51.866023], [-2.064371, 51.86602], [-2.063761, 51.865979], [-2.063717, 51.865976], [-2.063426, 51.865947], [-2.063326, 51.86594], [-2.063225, 51.865937], [-2.063124, 51.86594], [-2.063002, 51.86595], [-2.062883, 51.865967], [-2.062767, 51.865992], [-2.062655, 51.866023], [-2.06255, 51.86606], [-2.062442, 51.866092], [-2.062304, 51.866127], [-2.062162, 51.866155], [-2.062017, 51.866176], [-2.061705, 51.866228], [-2.061209, 51.866354], [-2.060713, 51.866479], [-2.060666, 51.8665], [-2.060187, 51.866558], [-2.060122, 51.866566], [-2.059578, 51.866631], [-2.059184, 51.866722], [-2.058789, 51.866813], [-2.058213, 51.866745], [-2.058034, 51.866783], [-2.057815, 51.866786], [-2.057815, 51.866561], [-2.057815, 51.866296], [-2.057539, 51.865957], [-2.057264, 51.865617], [-2.056988, 51.865278], [-2.056651, 51.864937], [-2.056289, 51.864663], [-2.056246, 51.86463], [-2.055975, 51.864396], [-2.055705, 51.864162], [-2.055437, 51.863903], [-2.0553, 51.86378], [-2.055212, 51.863722], [-2.055126, 51.863673], [-2.054945, 51.863598], [-2.05476, 51.863571], [-2.054608, 51.863557], [-2.054506, 51.863479], [-2.053989, 51.86324], [-2.05377, 51.86314], [-2.053597, 51.862986], [-2.05344, 51.862825], [-2.053304, 51.86265], [-2.053271, 51.862563], [-2.053155, 51.862251], [-2.053142, 51.862129], [-2.053122, 51.862101], [-2.053065, 51.862021], [-2.053051, 51.862009], [-2.052949, 51.861918], [-2.052764, 51.861846], [-2.052689, 51.861802], [-2.052539, 51.861695], [-2.052421, 51.86158], [-2.052054, 51.861211], [-2.051865, 51.860998], [-2.051676, 51.860786], [-2.051468, 51.860491], [-2.05126, 51.860196], [-2.051168, 51.860003], [-2.051236, 51.859984], [-2.05158, 51.859888], [-2.051632, 51.859873], [-2.051925, 51.859791], [-2.052105, 51.859991], [-2.052286, 51.860191], [-2.052586, 51.860406], [-2.052999, 51.860715], [-2.053413, 51.861024], [-2.053763, 51.861241], [-2.054113, 51.861458], [-2.054594, 51.861619], [-2.054706, 51.861656], [-2.054981, 51.861832], [-2.055256, 51.862008], [-2.055585, 51.862258], [-2.055787, 51.862571], [-2.055989, 51.862883], [-2.056424, 51.863141], [-2.056859, 51.863398], [-2.057158, 51.863528], [-2.057566, 51.863823], [-2.057973, 51.864118], [-2.058381, 51.864413], [-2.058784, 51.864688], [-2.059145, 51.864858], [-2.059506, 51.865029], [-2.059926, 51.865073], [-2.060346, 51.865118], [-2.060797, 51.86508], [-2.061248, 51.865043], [-2.061816, 51.865118], [-2.06218, 51.865053], [-2.062591, 51.86498], [-2.062786, 51.864958], [-2.063155, 51.864917], [-2.063523, 51.864876], [-2.063716, 51.864756], [-2.064063, 51.864755], [-2.064323, 51.864814], [-2.064804, 51.864802], [-2.065286, 51.864791], [-2.065932, 51.864909], [-2.066579, 51.865026], [-2.067088, 51.865101], [-2.067597, 51.865177], [-2.068217, 51.865315], [-2.068838, 51.865454], [-2.069057, 51.865485], [-2.06906, 51.865518], [-2.069086, 51.865548], [-2.06914, 51.865584], [-2.069217, 51.865613], [-2.069323, 51.865631], [-2.069469, 51.865645], [-2.06992, 51.865733], [-2.070255, 51.865803], [-2.070607, 51.865877], [-2.070959, 51.865952], [-2.071084, 51.865988], [-2.071334, 51.865983], [-2.071812, 51.865922], [-2.072169, 51.865856], [-2.07257, 51.865726], [-2.072708, 51.865682], [-2.07312, 51.865599], [-2.073367, 51.86555], [-2.0736, 51.865521], [-2.07384, 51.865521], [-2.074293, 51.865546], [-2.074787, 51.865633], [-2.075216, 51.865793], [-2.074979, 51.865972], [-2.074967, 51.865981], [-2.074742, 51.866152], [-2.074491, 51.866429], [-2.07424, 51.866707], [-2.073989, 51.866984], [-2.073665, 51.867342], [-2.073341, 51.8677], [-2.073179, 51.867951], [-2.072957, 51.868173], [-2.072735, 51.868394], [-2.072679, 51.868481], [-2.072644, 51.868577], [-2.072635, 51.868601]]}}